NORAD_CAT_ID,OBJECT_NAME,OBJECT_TYPE,EPOCH,MEAN_MOTION,ECCENTRICITY,INCLINATION,RA_OF_ASC_NODE,ARG_OF_PERICENTER,MEAN_ANOMALY,BSTAR,MEAN_MOTION_DOT,MEAN_MOTION_DDOT,TLE_LINE0,TLE_LINE1,TLE_LINE2,SEMIMAJOR_AXIS,PERIOD,APOGEE,PERIGEE,DECAYED
52495.0,STARLINK-3905,PAYLOAD,2023-03-29 14:55:16,15.08849289,0.0001166,53.2161,199.7753,102.006,258.1063,0.00017843,2.554e-05,0.0,0 STARLINK-3905,1 52495U 22049AW  23088.62171580  .00002554  00000-0  17843-3 0  9995,2 52495  53.2161 199.7753 0001166 102.0060 258.1063 15.08849289 49944,6917.852,95.437,540.524,538.91,0.0
52495.0,STARLINK-3905,PAYLOAD,2023-03-30 06:49:08,15.08833716,0.0001153,53.2167,196.8024,112.4722,247.6392,0.00013217,1.816e-05,0.0,0 STARLINK-3905,1 52495U 22049AW  23089.28412555  .00001816  00000-0  13217-3 0  9999,2 52495  53.2167 196.8024 0001153 112.4722 247.6392 15.08833716 50202,6917.9,95.438,540.562,538.967,0.0
52495.0,STARLINK-3905,PAYLOAD,2023-03-30 14:46:03,15.08851237,0.000134,53.216,195.3132,106.1551,253.9588,0.00016893,2.402e-05,0.0,0 STARLINK-3905,1 52495U 22049AW  23089.61531742  .00002402  00000-0  16893-3 0  9991,2 52495  53.2160 195.3132 0001340 106.1551 253.9588 15.08851237 50257,6917.846,95.437,540.638,538.784,0.0
52495.0,STARLINK-3905,PAYLOAD,2023-03-31 06:39:55,15.08842507,0.0001347,53.2172,192.3426,87.7544,272.3602,9.7251e-05,1.26e-05,0.0,0 STARLINK-3905,1 52495U 22049AW  23090.27772360  .00001260  00000-0  97251-4 0  9997,2 52495  53.2172 192.3426 0001347  87.7544 272.3602 15.08842507 50359,6917.873,95.437,540.67,538.806,0.0
52495.0,STARLINK-3905,PAYLOAD,2023-03-31 13:01:27,15.08850427,0.000134,53.2157,191.1529,94.2369,265.8776,0.00019577,2.83e-05,0.0,0 STARLINK-3905,1 52495U 22049AW  23090.54267866  .00002830  00000-0  19577-3 0  9995,2 52495  53.2157 191.1529 0001340  94.2369 265.8776 15.08850427 50397,6917.849,95.437,540.641,538.787,0.0
52495.0,STARLINK-3905,PAYLOAD,2023-04-01 06:30:43,15.08823137,0.0001252,53.2166,187.8797,97.946,262.1674,-0.00021874,-3.766e-05,0.0,0 STARLINK-3905,1 52495U 22049AW  23091.27133333 -.00003766  00000-0 -21874-3 0  9991,2 52495  53.2166 187.8797 0001252  97.9460 262.1674 15.08823137 50508,6917.932,95.439,540.663,538.931,0.0
52495.0,STARLINK-3905,PAYLOAD,2023-04-01 12:52:15,15.08832556,0.0001467,53.216,186.6934,76.5101,283.6055,1.1017e-05,-1.13e-06,0.0,0 STARLINK-3905,1 52495U 22049AW  23091.53629034 -.00000113  00000-0  11017-4 0  9999,2 52495  53.2160 186.6934 0001467  76.5101 283.6055 15.08832556 50545,6917.903,95.438,540.783,538.753,0.0
52495.0,STARLINK-3905,PAYLOAD,2023-04-02 06:21:29,15.08841863,0.0001548,53.216,183.4194,109.8958,250.2201,4.7651e-05,4.7e-06,0.0,0 STARLINK-3905,1 52495U 22049AW  23092.26492648  .00000470  00000-0  47651-4 0  9997,2 52495  53.2160 183.4194 0001548 109.8958 250.2201 15.08841863 50654,6917.875,95.437,540.811,538.669,0.0
52495.0,STARLINK-3905,PAYLOAD,2023-04-02 12:43:02,15.08846692,0.0001595,53.2158,182.2302,107.4511,252.6656,0.00023158,3.4e-05,0.0,0 STARLINK-3905,1 52495U 22049AW  23092.52988446  .00003400  00000-0  23158-3 0  9993,2 52495  53.2158 182.2302 0001595 107.4511 252.6656 15.08846692 50532,6917.86,95.437,540.828,538.622,0.0
52495.0,STARLINK-3905,PAYLOAD,2023-04-02 15:53:48,15.08851399,0.0001577,53.2151,181.6328,116.7208,243.3945,0.00031938,4.8e-05,0.0,0 STARLINK-3905,1 52495U 22049AW  23092.66236126  .00004800  00000-0  31938-3 0  9999,2 52495  53.2151 181.6328 0001577 116.7208 243.3945 15.08851399 50710,6917.846,95.437,540.801,538.62,0.0
52495.0,STARLINK-3905,PAYLOAD,2023-04-03 06:12:17,15.08833409,0.0001296,53.2152,178.9608,94.3669,265.7471,8.2499e-05,1.025e-05,0.0,0 STARLINK-3905,1 52495U 22049AW  23093.25853238  .00001025  00000-0  82499-4 0  9999,2 52495  53.2152 178.9608 0001296  94.3669 265.7471 15.08833409 50805,6917.901,95.438,540.662,538.869,0.0
52495.0,STARLINK-3905,PAYLOAD,2023-04-03 10:58:26,15.08839304,0.0001464,53.2151,178.0686,86.2283,273.8876,0.00015947,2.251e-05,0.0,0 STARLINK-3905,1 52495U 22049AW  23093.45725050  .00002251  00000-0  15947-3 0  9996,2 52495  53.2151 178.0686 0001464  86.2283 273.8876 15.08839304 50674,6917.883,95.438,540.76,538.735,0.0
52495.0,STARLINK-3905,PAYLOAD,2023-04-04 06:03:03,15.08841833,0.0001516,53.2167,174.5009,107.2789,252.8369,4.4158e-05,4.15e-06,0.0,0 STARLINK-3905,1 52495U 22049AW  23094.25212657  .00000415  00000-0  44158-4 0  9996,2 52495  53.2167 174.5009 0001516 107.2789 252.8369 15.08841833 50959,6917.875,95.437,540.789,538.691,0.0
52495.0,STARLINK-3905,PAYLOAD,2023-04-04 10:49:13,15.08840342,0.0001604,53.2174,173.6095,114.1437,245.9723,-6.5429e-05,-1.329e-05,0.0,0 STARLINK-3905,1 52495U 22049AW  23094.45084675 -.00001329  00000-0 -65429-4 0  9996,2 52495  53.2174 173.6095 0001604 114.1437 245.9723 15.08840342 50824,6917.879,95.438,540.854,538.635,0.0
52495.0,STARLINK-3905,PAYLOAD,2023-04-05 05:53:52,15.08823969,0.0001665,53.216,170.0403,114.2284,245.8883,-6.9417e-05,-1.392e-05,0.0,0 STARLINK-3905,1 52495U 22049AW  23095.24574220 -.00001392  00000-0 -69417-4 0  9995,2 52495  53.2160 170.0403 0001665 114.2284 245.8883 15.08823969 51105,6917.929,95.439,540.946,538.643,0.0
52495.0,STARLINK-3905,PAYLOAD,2023-04-05 12:15:25,15.08821731,0.0001272,53.216,168.8498,95.259,264.8548,-5.7788e-05,-1.207e-05,0.0,0 STARLINK-3905,1 52495U 22049AW  23095.51071457 -.00001207  00000-0 -57788-4 0  9992,2 52495  53.2160 168.8498 0001272  95.2590 264.8548 15.08821731 50985,6917.936,95.439,540.681,538.921,0.0
52495.0,STARLINK-3905,PAYLOAD,2023-04-06 08:55:25,15.08838365,0.0001222,53.2152,164.9852,106.2107,253.9019,0.00021973,3.211e-05,0.0,0 STARLINK-3905,1 52495U 22049AW  23096.37182324  .00003211  00000-0  21973-3 0  9994,2 52495  53.2152 164.9852 0001222 106.2107 253.9019 15.08838365 51275,6917.885,95.438,540.596,538.905,0.0
52495.0,STARLINK-3905,PAYLOAD,2023-04-06 12:06:11,15.08844202,0.0001365,53.2156,164.3908,88.7001,271.4148,0.00031383,4.711e-05,0.0,0 STARLINK-3905,1 52495U 22049AW  23096.50430227  .00004711  00000-0  31383-3 0  9999,2 52495  53.2156 164.3908 0001365  88.7001 271.4148 15.08844202 51130,6917.868,95.437,540.677,538.788,0.0
52495.0,STARLINK-3905,PAYLOAD,2023-04-06 21:38:29,15.08859668,0.0001189,53.2149,162.6038,104.1374,255.9751,0.00063066,9.769e-05,0.0,0 STARLINK-3905,1 52495U 22049AW  23096.90173410  .00009769  00000-0  63066-3 0  9992,2 52495  53.2149 162.6038 0001189 104.1374 255.9751 15.08859668 51350,6917.82,95.436,540.508,538.863,0.0
52495.0,STARLINK-3905,PAYLOAD,2023-04-07 04:00:02,15.08853891,0.0001628,53.2141,161.4147,102.3463,257.7711,0.00044934,6.873e-05,0.0,0 STARLINK-3905,1 52495U 22049AW  23097.16669869  .00006873  00000-0  44934-3 0  9995,2 52495  53.2141 161.4147 0001628 102.3463 257.7711 15.08853891 51399,6917.838,95.437,540.829,538.577,0.0
52495.0,STARLINK-3905,PAYLOAD,2023-04-07 11:56:57,15.08861233,0.000102,53.2142,159.9283,116.1631,243.9467,0.00042085,6.42e-05,0.0,0 STARLINK-3905,1 52495U 22049AW  23097.49789135  .00006420  00000-0  42085-3 0  9993,2 52495  53.2142 159.9283 0001020 116.1631 243.9467 15.08861233 51281,6917.815,95.436,540.386,538.975,0.0
52495.0,STARLINK-3905,PAYLOAD,2023-04-08 03:50:49,15.08854462,0.0001234,53.2145,156.956,89.2119,270.9014,0.0005652,8.722e-05,0.0,0 STARLINK-3905,1 52495U 22049AW  23098.16029246  .00008722  00000-0  56520-3 0  9994,2 52495  53.2145 156.9560 0001234  89.2119 270.9014 15.08854462 51540,6917.836,95.437,540.555,538.848,0.0
52495.0,STARLINK-3905,PAYLOAD,2023-04-08 10:12:21,15.08853476,0.0001075,53.2139,155.7645,110.9492,249.1615,0.000377,5.719e-05,0.0,0 STARLINK-3905,1 52495U 22049AW  23098.42524947  .00005719  00000-0  37700-3 0  9993,2 52495  53.2139 155.7645 0001075 110.9492 249.1615 15.08853476 51429,6917.839,95.437,540.448,538.961,0.0
52495.0,STARLINK-3905,PAYLOAD,2023-04-08 21:20:03,15.0884446,0.000118,53.2137,153.6855,79.3421,280.7704,0.00016738,2.377e-05,0.0,0 STARLINK-3905,1 52495U 22049AW  23098.88893200  .00002377  00000-0  16738-3 0  9999,2 52495  53.2137 153.6855 0001180  79.3421 280.7704 15.08844460 51652,6917.867,95.437,540.548,538.915,0.0
52495.0,STARLINK-3905,PAYLOAD,2023-04-09 08:27:45,15.08840512,0.0001116,53.215,151.6027,91.3033,268.8087,6.6029e-05,7.63e-06,0.0,0 STARLINK-3905,1 52495U 22049AW  23099.35261359  .00000763  00000-0  66029-4 0  9992,2 52495  53.2150 151.6027 0001116  91.3033 268.8087 15.08840512 51563,6917.879,95.438,540.516,538.972,0.0
52495.0,STARLINK-3905,PAYLOAD,2023-04-10 08:18:32,15.08841242,0.0001147,53.2157,147.1415,90.5776,269.5348,3.2841e-05,2.35e-06,0.0,0 STARLINK-3905,1 52495U 22049AW  23100.34621381  .00000235  00000-0  32841-4 0  9998,2 52495  53.2157 147.1415 0001147  90.5776 269.5348 15.08841242 51716,6917.877,95.437,540.535,538.948,0.0
52495.0,STARLINK-3905,PAYLOAD,2023-04-10 19:26:14,15.08842265,0.0001179,53.2158,145.0584,97.5417,262.5709,7.2096e-05,8.6e-06,0.0,0 STARLINK-3905,1 52495U 22049AW  23100.80989113  .00000860  00000-0  72096-4 0  9999,2 52495  53.2158 145.0584 0001179  97.5417 262.5709 15.08842265 51940,6917.873,95.437,540.554,538.923,0.0
52495.0,STARLINK-3905,PAYLOAD,2023-04-11 09:44:42,15.08845545,0.0001183,53.2164,142.3834,97.2663,262.8464,0.0001629,2.306e-05,0.0,0 STARLINK-3905,1 52495U 22049AW  23101.40604720  .00002306  00000-0  16290-3 0  9994,2 52495  53.2164 142.3834 0001183  97.2663 262.8464 15.08845545 51877,6917.863,95.437,540.547,538.91,0.0
52495.0,STARLINK-3905,PAYLOAD,2023-04-12 01:38:34,15.08837686,0.0001315,53.217,139.4151,80.558,279.5561,0.0001055,1.391e-05,0.0,0 STARLINK-3905,1 52495U 22049AW  23102.06845488  .00001391  00000-0  10550-3 0  9991,2 52495  53.2170 139.4151 0001315  80.5580 279.5561 15.08837686 52133,6917.887,95.438,540.662,538.843,0.0
52495.0,STARLINK-3905,PAYLOAD,2023-04-12 08:00:07,15.08830856,0.0001209,53.2159,138.2202,96.1702,263.9428,2.2816e-06,-2.52e-06,0.0,0 STARLINK-3905,1 52495U 22049AW  23102.33342193 -.00000252  00000-0  22816-5 0  9992,2 52495  53.2159 138.2202 0001209  96.1702 263.9428 15.08830856 52170,6917.908,95.438,540.61,538.937,0.0
